H1 CPF 01  gfz 2022 06 30 12  6812 tandemx   
H2 1003001  6202 36605    2022 06 30 12 59 42 2022 07 05 00 00 42   120 1 1  0 0 0
H9
10 0 59763  35982.000000  0     614142.105  -2676561.010  -6324661.477
10 0 59763  36102.000000  0     127257.173  -1952637.636  -6611748.437
10 0 59763  36222.000000  0    -348791.341  -1186466.697  -6783495.501
10 0 59763  36342.000000  0    -805139.128   -391594.030  -6836950.503
10 0 59763  36462.000000  0   -1233508.010    417799.807  -6771196.156
10 0 59763  36582.000000  0   -1626352.631   1227145.934  -6587363.304
10 0 59763  36702.000000  0   -1976990.115   2021742.817  -6288613.466
10 0 59763  36822.000000  0   -2279711.866   2787016.563  -5880091.020
10 0 59763  36942.000000  0   -2529876.874   3508784.772  -5368844.623
10 0 59763  37062.000000  0   -2723983.853   4173518.501  -4763717.093
10 0 59763  37182.000000  0   -2859722.146   4768599.007  -4075203.747
10 0 59763  37302.000000  0   -2935998.532   5282562.566  -3315278.986
10 0 59763  37422.000000  0   -2952939.085   5705327.404  -2497195.818
10 0 59763  37542.000000  0   -2911867.453   6028401.300  -1635260.682
10 0 59763  37662.000000  0   -2815257.525   6245062.174   -744582.930
10 0 59763  37782.000000  0   -2666662.079   6350504.343    159192.368
10 0 59763  37902.000000  0   -2470620.772   6341952.209   1060164.447
10 0 59763  38022.000000  0   -2232545.113   6218732.039   1942468.393
10 0 59763  38142.000000  0   -1958584.424   5982297.888   2790564.515
10 0 59763  38262.000000  0   -1655478.495   5636215.169   3589519.405
10 0 59763  38382.000000  0   -1330400.578   5186102.796   4325274.207
10 0 59763  38502.000000  0    -990794.296   4639534.800   4984895.825
10 0 59763  38622.000000  0    -644206.477   4005903.138   5556804.762
10 0 59763  38742.000000  0    -298123.063   3296247.832   6030975.001
10 0 59763  38862.000000  0      40189.204   2523056.133   6399105.709
10 0 59763  38982.000000  0     363832.614   1700036.822   6654759.976
10 0 59763  39102.000000  0     666417.072    841873.327   6793471.996
10 0 59763  39222.000000  0     942184.523    -36040.034   6812819.256
10 0 59763  39342.000000  0    1186117.363   -917872.938   6712462.617
10 0 59763  39462.000000  0    1394029.427  -1787644.286   6494152.728
10 0 59763  39582.000000  0    1562638.108  -2629511.355   6161701.795
10 0 59763  39702.000000  0    1689616.441  -3428059.705   5720921.392
10 0 59763  39822.000000  0    1773623.904  -4168588.297   5179525.629
10 0 59763  39942.000000  0    1814316.165  -4837383.296   4547001.262
10 0 59763  40062.000000  0    1812334.294  -5421978.429   3834448.193
10 0 59763  40182.000000  0    1769272.513  -5911397.480   3054387.687
10 0 59763  40302.000000  0    1687623.606  -6296368.780   2220541.604
10 0 59763  40422.000000  0    1570705.528  -6569508.904   1347589.548
10 0 59763  40542.000000  0    1422569.943  -6725472.408    450906.188
10 0 59763  40662.000000  0    1247894.176  -6761062.048   -453716.559
10 0 59763  40782.000000  0    1051858.633  -6675296.944  -1350358.312
10 0 59763  40902.000000  0     840013.998  -6469431.568  -2223260.614
10 0 59763  41022.000000  0     618142.156  -6146930.078  -3057110.113
10 0 59763  41142.000000  0     392115.460  -5713398.534  -3837311.386
10 0 59763  41262.000000  0     167755.951  -5176475.411  -4550243.868
10 0 59763  41382.000000  0     -49301.722  -4545683.594  -5183496.337
10 0 59763  41502.000000  0    -253739.787  -3832250.016  -5726076.171
10 0 59763  41622.000000  0    -440676.704  -3048896.056  -6168590.988
10 0 59763  41742.000000  0    -605773.848  -2209604.215  -6503400.069
10 0 59763  41862.000000  0    -745328.039  -1329365.819  -6724734.682
10 0 59763  41982.000000  0    -856348.366   -423914.938  -6828787.532
10 0 59763  42102.000000  0    -936615.942    490548.963  -6813771.107
10 0 59763  42222.000000  0    -984726.037   1397643.753  -6679943.832
10 0 59763  42342.000000  0   -1000112.212   2281090.461  -6429606.063
10 0 59763  42462.000000  0    -983051.947   3124998.063  -6067065.428
10 0 59763  42582.000000  0    -934653.744   3914145.740  -5598571.876
10 0 59763  42702.000000  0    -856825.701   4634256.540  -5032220.141
10 0 59763  42822.000000  0    -752226.127   5272258.857  -4377821.801
10 0 59763  42942.000000  0    -624197.122   5816531.015  -3646745.549
10 0 59763  43062.000000  0    -476681.617   6257122.400  -2851727.841
10 0 59763  43182.000000  0    -314125.443   6585947.066  -2006657.102
10 0 59763  43302.000000  0    -141366.760   6796944.967  -1126333.087
10 0 59763  43422.000000  0      36484.987   6886205.555   -226206.052
10 0 59763  43542.000000  0     214178.035   6852050.183    677899.415
10 0 59763  43662.000000  0     386451.633   6695070.406   1570070.755
10 0 59763  43782.000000  0     548169.457   6418119.280   2434597.151
10 0 59763  43902.000000  0     694449.278   6026256.347   3256253.910
10 0 59763  44022.000000  0     820786.618   5526650.374   4020577.061
10 0 59763  44142.000000  0     923171.405   4928442.403   4714123.042
10 0 59763  44262.000000  0     998189.898   4242565.989   5324710.995
10 0 59763  44382.000000  0    1043112.897   3481535.408   5841631.547
10 0 59763  44502.000000  0    1055968.884   2659210.061   6255830.500
10 0 59763  44622.000000  0    1035597.931   1790535.228   6560062.369
10 0 59763  44742.000000  0     981687.276    891265.687   6749011.386
10 0 59763  44862.000000  0     894787.730    -22322.334   6819377.917
10 0 59763  44982.000000  0     776310.531   -933724.402   6769932.777
10 0 59763  45102.000000  0     628504.361  -1826506.015   6601538.627
10 0 59763  45222.000000  0     454412.808  -2684598.784   6317136.105
10 0 59763  45342.000000  0     257813.031  -3492591.401   5921695.543
10 0 59763  45462.000000  0      43137.143  -4236007.616   5422132.363
10 0 59763  45582.000000  0    -184621.929  -4901567.487   4827192.580
10 0 59763  45702.000000  0    -420019.105  -5477431.559   4147308.061
10 0 59763  45822.000000  0    -657279.835  -5953422.454   3394417.960
10 0 59763  45942.000000  0    -890433.412  -6321214.453   2581760.111
10 0 59763  46062.000000  0   -1113452.512  -6574488.443   1723637.042
10 0 59763  46182.000000  0   -1320396.660  -6709049.752    835161.340
10 0 59763  46302.000000  0   -1505557.789  -6722903.891    -68018.555
10 0 59763  46422.000000  0   -1663600.342  -6616286.042   -970003.201
10 0 59763  46542.000000  0   -1789693.974  -6391645.940  -1854930.752
10 0 59763  46662.000000  0   -1879635.977  -6053588.935  -2707263.490
10 0 59763  46782.000000  0   -1929960.510  -5608774.474  -3512066.825
10 0 59763  46902.000000  0   -1938031.469  -5065774.066  -4255274.174
10 0 59763  47022.000000  0   -1902116.612  -4434893.934  -4923931.243
10 0 59763  47142.000000  0   -1821442.031  -3727968.606  -5506416.050
10 0 59763  47262.000000  0   -1696226.211  -2958130.567  -5992632.676
10 0 59763  47382.000000  0   -1527692.928  -2139560.239  -6374176.577
10 0 59763  47502.000000  0   -1318062.925  -1287221.420  -6644468.243
10 0 59763  47622.000000  0   -1070525.653   -416588.763  -6798855.210
10 0 59763  47742.000000  0    -789191.496    456629.056  -6834683.144
10 0 59763  47862.000000  0    -479023.940   1316765.840  -6751335.883
10 0 59763  47982.000000  0    -145754.192   2148471.447  -6550244.632
10 0 59763  48102.000000  0     204220.646   2936978.783  -6234867.164
10 0 59763  48222.000000  0     563956.917   3668362.774  -5810636.348
10 0 59763  48342.000000  0     926098.075   4329785.157  -5284875.055
10 0 59763  48462.000000  0    1283019.919   4909721.673  -4666681.414
10 0 59763  48582.000000  0    1626986.553   5398169.743  -3966782.867
10 0 59763  48702.000000  0    1950313.644   5786829.845  -3197359.022
10 0 59763  48822.000000  0    2245535.261   6069257.234  -2371837.156
10 0 59763  48942.000000  0    2505571.293   6240981.048  -1504661.746
10 0 59763  49062.000000  0    2723890.987   6299586.040   -611040.809
10 0 59763  49182.000000  0    2894668.075   6244753.150    293325.536
10 0 59763  49302.000000  0    3012923.388   6078257.744   1192527.456
10 0 59763  49422.000000  0    3074651.420   5803926.601   2070732.908
10 0 59763  49542.000000  0    3076927.456   5427553.805   2912474.841
10 0 59763  49662.000000  0    3017992.814   4956777.033   3702931.558
10 0 59763  49782.000000  0    2897316.403   4400918.167   4428193.791
10 0 59763  49902.000000  0    2715628.824   3770791.463   5075514.954
10 0 59763  50022.000000  0    2474928.184   3078483.051   5633534.350
10 0 59763  50142.000000  0    2178462.218   2337112.348   6092471.652
10 0 59763  50262.000000  0    1830685.307   1560578.639   6444294.395
10 0 59763  50382.000000  0    1437189.610    763295.487   6682853.074
10 0 59763  50502.000000  0    1004613.101    -40078.463   6803981.217
10 0 59763  50622.000000  0     540526.991   -834907.570   6805564.235
10 0 59763  50742.000000  0      53302.926  -1606846.192   6687575.251
10 0 59763  50862.000000  0    -448038.281  -2342097.528   6452075.132
10 0 59763  50982.000000  0    -953993.450  -3027660.731   6103177.859
10 0 59763  51102.000000  0   -1454754.885  -3651561.257   5646981.220
10 0 59763  51222.000000  0   -1940398.177  -4203061.985   5091467.254
10 0 59763  51342.000000  0   -2401079.442  -4672853.694   4446370.821
10 0 59763  51462.000000  0   -2827237.189  -5053220.249   3723014.635
10 0 59763  51582.000000  0   -3209792.590  -5338173.327   2934112.115
10 0 59763  51702.000000  0   -3540342.902  -5523552.453   2093543.078
10 0 59763  51822.000000  0   -3811345.032  -5607089.899   1216107.064
10 0 59763  51942.000000  0   -4016285.006  -5588438.007    317257.293
10 0 59763  52062.000000  0   -4149828.445  -5469157.700   -587178.833
10 0 59763  52182.000000  0   -4207948.249  -5252668.593  -1481287.556
10 0 59763  52302.000000  0   -4188025.426  -4944160.585  -2349358.208
10 0 59763  52422.000000  0   -4088920.693  -4550469.771  -3176166.632
99
